STARLINK-37537          
1 69420U 26126A   26187.80364718  .00105144  00000+0  69638-3 0  9998
2 69420  97.2847  48.7412 0001053  65.0087 295.1287 15.75215958  5839
STARLINK-37585          
1 69421U 26126B   26187.60247704  .00045913  00000+0  30677-3 0  9990
2 69421  97.2843  48.5569 0001096  34.1466 325.9869 15.75210253  5800
STARLINK-37573          
1 69422U 26126C   26187.61624074  .00085601  00000+0  56868-3 0  9999
2 69422  97.2844  48.5378 0001477  14.9365 345.1944 15.75204339  5803
STARLINK-37820          
1 69423U 26126D   26188.07576801  .00242578  00000+0  15752-2 0  9999
2 69423  97.2840  49.1390 0001569  63.7456 296.3970 15.75282259  5887
STARLINK-37822          
1 69424U 26126E   26187.58377205  .00105300  00000+0  69599-3 0  9992
2 69424  97.2843  48.5834 0000732  11.9138 348.2144 15.75262950  5808
STARLINK-37836          
1 69425U 26126F   26187.56471903  .00182775  00000+0  11950-2 0  9999
2 69425  97.2846  48.6101 0001165  90.0208 270.1191 15.75291307  5800
STARLINK-37850          
1 69426U 26126G   26188.07788505  .00206614  00000+0  13482-2 0  9997
2 69426  97.2839  49.1362 0001542  66.4269 293.7158 15.75268858  5934
STARLINK-37823          
1 69427U 26126H   26187.59012808  .00138240  00000+0  91134-3 0  9990
2 69427  97.2845  48.5737 0000765  20.4419 339.6876 15.75226330  5806
STARLINK-37834          
1 69428U 26126J   26187.59857262  .00023655  00000+0  15907-3 0  9999
2 69428  97.2840  48.5625 0002527 328.4393  31.6720 15.75180434  5809
STARLINK-37857          
1 69429U 26126K   26188.41316579  .00205202  00000+0  13391-2 0  9997
2 69429  97.2845  49.4447 0001293  79.4529 280.6882 15.75271054  5938
STARLINK-37866          
1 69430U 26126L   26188.07082802  .00195976  00000+0  12811-2 0  9992
2 69430  97.2844  49.1461 0001782  66.7497 293.3956 15.75257959  5939
STARLINK-37555          
1 69431U 26126M   26188.08352938  .00160737  00000+0  10556-2 0  9995
2 69431  97.2837  49.1282 0001227  42.4983 317.6377 15.75251108  5935
STARLINK-37870          
1 69432U 26126N   26188.20705463  .00195340  00000+0  12741-2 0  9991
2 69432  97.2853  49.2670 0003093 348.5200  11.5994 15.75307517  5909
STARLINK-37872          
1 69433U 26126P   26188.38246821  .00144675  00000+0  95050-3 0  9999
2 69433  97.2848  49.4880 0002378 348.0583  12.0626 15.75285492  5931
STARLINK-37815          
1 69434U 26126Q   26187.60636022  .00116149  00000+0  76868-3 0  9991
2 69434  97.2839  48.5515 0001575   9.5119 350.6176 15.75200661  5801
STARLINK-37801          
1 69435U 26126R   26188.41810808  .00204914  00000+0  13366-2 0  9999
2 69435  97.2851  49.4394 0001221  78.5376 281.6026 15.75282613  5983
STARLINK-37800          
1 69436U 26126S   26187.59436119  .00059761  00000+0  39826-3 0  9995
2 69436  97.2839  48.5700 0002084 355.0893   5.0352 15.75216062  5802
STARLINK-37792          
1 69437U 26126T   26188.41672454 -.00093518  00000+0 -63232-3 0  9990
2 69437  97.2846  49.5402 0001712  95.4158 132.8850 15.75213192  6003
STARLINK-37783          
1 69438U 26126U   26187.55872122  .00142602  00000+0  94016-3 0  9990
2 69438  97.2842  48.6188 0001519 359.3329   0.7934 15.75211979  5857
STARLINK-37771          
1 69439U 26126V   26187.61059319  .00056972  00000+0  37995-3 0  9990
2 69439  97.2846  48.5457 0001629   6.7840 353.3446 15.75210105  5803
STARLINK-37747          
1 69440U 26126W   26188.08776376  .00144937  00000+0  95410-3 0  9998
2 69440  97.2840  49.1222 0000788  79.4980 280.6374 15.75240955  5889
STARLINK-37629          
1 69443U 26127A   26188.54549284  .00261324  00000+0  16386-2 0  9993
2 69443  53.1586 161.2362 0001254   7.9201 352.1839 15.75492516  4615
STARLINK-37509          
1 69444U 26127B   26188.35094544  .00259099  00000+0  16380-2 0  9997
2 69444  53.1589 162.1522 0001581  83.2622 276.8578 15.75311217  4580
STARLINK-37641          
1 69445U 26127C   26188.33699816  .00148419  00000+0  95549-3 0  9997
2 69445  53.1570 162.0604 0000904  69.3445 290.7672 15.75238508  4588
STARLINK-37522          
1 69446U 26127D   26188.54094866  .00154120  00000+0  99061-3 0  9994
2 69446  53.1592 161.2041 0000977 145.1483 214.9602 15.75256110  4618
STARLINK-37640          
1 69447U 26127E   26188.51371977  .00067681  00000+0  44157-3 0  9994
2 69447  53.1603 161.0271 0000869  63.3382 296.7727 15.75269608  4616
STARLINK-37572          
1 69448U 26127F   26188.53220372  .00116344  00000+0  75187-3 0  9997
2 69448  53.1589 161.1477 0001235  68.9562 291.1590 15.75265222  4613
STARLINK-37643          
1 69449U 26127G   26188.34636418  .00395926  00000+0  26359-2 0  9990
2 69449  53.1591 162.1233 0006163 194.1327 165.9521 15.73702203  4585
STARLINK-37601          
1 69450U 26127H   26188.34607530  .00233580  00000+0  14814-2 0  9995
2 69450  53.1592 162.1204 0000671  19.0882 341.0163 15.75312749  4588
STARLINK-37578          
1 69451U 26127J   26188.52278991  .00239059  00000+0  15168-2 0  9991
2 69451  53.1563 161.0804 0000899 125.3585 234.7520 15.75286342  4612
